{"type": "FeatureCollection", "features": [{"type": "Feature", "properties": {"type": "potential_vegetation_loss"}, "geometry": {"type": "Polygon", "coordinates": [[[76.004436, 12.51141], [76.004428, 12.509471], [76.006402, 12.509464], [76.006409, 12.511403], [76.004436, 12.51141]]]}}, {"type": "Feature", "properties": {"type": "potential_vegetation_loss"}, "geometry": {"type": "Polygon", "coordinates": [[[75.390591, 12.48779], [75.390588, 12.485851], [75.392562, 12.485848], [75.392565, 12.487787], [75.390591, 12.48779]]]}}, {"type": "Feature", "properties": {"type": "potential_vegetation_loss"}, "geometry": {"type": "Polygon", "coordinates": [[[75.382674, 12.472287], [75.382671, 12.470348], [75.384645, 12.470345], [75.384648, 12.472285], [75.382674, 12.472287]]]}}, {"type": "Feature", "properties": {"type": "potential_vegetation_loss"}, "geometry": {"type": "Polygon", "coordinates": [[[75.370817, 12.460668], [75.370814, 12.458729], [75.380681, 12.458715], [75.380684, 12.460655], [75.370817, 12.460668]]]}}, {"type": "Feature", "properties": {"type": "potential_vegetation_loss"}, "geometry": {"type": "Polygon", "coordinates": [[[75.998293, 12.453262], [75.998285, 12.451323], [76.000258, 12.451315], [76.000266, 12.453254], [75.998293, 12.453262]]]}}, {"type": "Feature", "properties": {"type": "potential_vegetation_loss"}, "geometry": {"type": "Polygon", "coordinates": [[[75.941038, 12.443772], [75.941031, 12.441832], [75.943004, 12.441826], [75.943011, 12.443765], [75.941038, 12.443772]]]}}, {"type": "Feature", "properties": {"type": "potential_vegetation_loss"}, "geometry": {"type": "Polygon", "coordinates": [[[75.956822, 12.443716], [75.956815, 12.441777], [75.958788, 12.44177], [75.958795, 12.443709], [75.956822, 12.443716]]]}}, {"type": "Feature", "properties": {"type": "potential_vegetation_loss"}, "geometry": {"type": "Polygon", "coordinates": [[[75.972556, 12.430087], [75.972549, 12.428148], [75.974522, 12.42814], [75.974529, 12.430079], [75.972556, 12.430087]]]}}, {"type": "Feature", "properties": {"type": "potential_vegetation_loss"}, "geometry": {"type": "Polygon", "coordinates": [[[75.555943, 12.285819], [75.555939, 12.283879], [75.557911, 12.283875], [75.557915, 12.285815], [75.555943, 12.285819]]]}}, {"type": "Feature", "properties": {"type": "potential_vegetation_loss"}, "geometry": {"type": "Polygon", "coordinates": [[[75.551983, 12.27807], [75.551979, 12.27613], [75.55395, 12.276126], [75.553955, 12.278066], [75.551983, 12.27807]]]}}, {"type": "Feature", "properties": {"type": "potential_vegetation_loss"}, "geometry": {"type": "Polygon", "coordinates": [[[75.632689, 12.217779], [75.632684, 12.215839], [75.634656, 12.215835], [75.634661, 12.217774], [75.632689, 12.217779]]]}}, {"type": "Feature", "properties": {"type": "potential_vegetation_loss"}, "geometry": {"type": "Polygon", "coordinates": [[[75.630713, 12.215844], [75.630708, 12.213905], [75.628737, 12.213909], [75.628728, 12.210031], [75.632671, 12.210022], [75.632684, 12.215839], [75.630713, 12.215844]]]}}, {"type": "Feature", "properties": {"type": "potential_vegetation_loss"}, "geometry": {"type": "Polygon", "coordinates": [[[75.636618, 12.211952], [75.636613, 12.210013], [75.638585, 12.210008], [75.63858, 12.208069], [75.640552, 12.208064], [75.640547, 12.206125], [75.64449, 12.206116], [75.644499, 12.209994], [75.640556, 12.210004], [75.640561, 12.211943], [75.636618, 12.211952]]]}}, {"type": "Feature", "properties": {"type": "potential_vegetation_loss"}, "geometry": {"type": "Polygon", "coordinates": [[[75.907451, 11.848571], [75.907445, 11.846631], [75.911382, 11.846619], [75.911388, 11.848558], [75.907451, 11.848571]]]}}, {"type": "Feature", "properties": {"type": "potential_vegetation_loss"}, "geometry": {"type": "Polygon", "coordinates": [[[75.917294, 11.848539], [75.917281, 11.844661], [75.91925, 11.844654], [75.919263, 11.848533], [75.917294, 11.848539]]]}}, {"type": "Feature", "properties": {"type": "potential_vegetation_loss"}, "geometry": {"type": "Polygon", "coordinates": [[[75.901545, 11.848589], [75.901539, 11.84665], [75.897601, 11.846663], [75.897595, 11.844724], [75.903501, 11.844705], [75.903514, 11.848583], [75.901545, 11.848589]]]}}, {"type": "Feature", "properties": {"type": "potential_vegetation_loss"}, "geometry": {"type": "Polygon", "coordinates": [[[75.993659, 11.733872], [75.993653, 11.731933], [75.99562, 11.731926], [75.995627, 11.733865], [75.993659, 11.733872]]]}}, {"type": "Feature", "properties": {"type": "potential_vegetation_loss"}, "geometry": {"type": "Polygon", "coordinates": [[[75.970039, 11.732014], [75.970032, 11.730075], [75.972, 11.730068], [75.972007, 11.732007], [75.970039, 11.732014]]]}}, {"type": "Feature", "properties": {"type": "potential_vegetation_loss"}, "geometry": {"type": "Polygon", "coordinates": [[[75.916902, 11.73025], [75.916895, 11.728311], [75.918863, 11.728305], [75.918869, 11.730244], [75.916902, 11.73025]]]}}, {"type": "Feature", "properties": {"type": "potential_vegetation_loss"}, "geometry": {"type": "Polygon", "coordinates": [[[75.90903, 11.730275], [75.909024, 11.728336], [75.907056, 11.728342], [75.90705, 11.726403], [75.910985, 11.726391], [75.910998, 11.730269], [75.90903, 11.730275]]]}}, {"type": "Feature", "properties": {"type": "potential_vegetation_loss"}, "geometry": {"type": "Polygon", "coordinates": [[[75.895231, 11.722562], [75.895224, 11.720623], [75.897192, 11.720617], [75.897198, 11.722556], [75.895231, 11.722562]]]}}, {"type": "Feature", "properties": {"type": "potential_vegetation_loss"}, "geometry": {"type": "Polygon", "coordinates": [[[75.944405, 11.716586], [75.944398, 11.714647], [75.946366, 11.714641], [75.946372, 11.71658], [75.944405, 11.716586]]]}}, {"type": "Feature", "properties": {"type": "potential_vegetation_loss"}, "geometry": {"type": "Polygon", "coordinates": [[[75.910916, 11.70506], [75.910909, 11.70312], [75.908942, 11.703127], [75.908935, 11.701188], [75.914838, 11.701169], [75.914851, 11.705047], [75.910916, 11.70506]]]}}, {"type": "Feature", "properties": {"type": "potential_vegetation_loss"}, "geometry": {"type": "Polygon", "coordinates": [[[75.916799, 11.699223], [75.916793, 11.697284], [75.91876, 11.697278], [75.918767, 11.699217], [75.916799, 11.699223]]]}}, {"type": "Feature", "properties": {"type": "potential_vegetation_loss"}, "geometry": {"type": "Polygon", "coordinates": [[[75.891202, 11.693486], [75.891196, 11.691547], [75.893163, 11.691541], [75.893169, 11.69348], [75.891202, 11.693486]]]}}, {"type": "Feature", "properties": {"type": "potential_vegetation_loss"}, "geometry": {"type": "Polygon", "coordinates": [[[75.885293, 11.691566], [75.885287, 11.689626], [75.891189, 11.689608], [75.891196, 11.691547], [75.885293, 11.691566]]]}}, {"type": "Feature", "properties": {"type": "potential_vegetation_loss"}, "geometry": {"type": "Polygon", "coordinates": [[[75.897086, 11.68765], [75.89708, 11.685711], [75.899047, 11.685705], [75.899053, 11.687644], [75.897086, 11.68765]]]}}, {"type": "Feature", "properties": {"type": "potential_vegetation_loss"}, "geometry": {"type": "Polygon", "coordinates": [[[75.895112, 11.685717], [75.895106, 11.683778], [75.897073, 11.683772], [75.89708, 11.685711], [75.895112, 11.685717]]]}}, {"type": "Feature", "properties": {"type": "potential_vegetation_loss"}, "geometry": {"type": "Polygon", "coordinates": [[[75.883288, 11.679936], [75.883282, 11.677997], [75.88525, 11.677991], [75.885256, 11.67993], [75.883288, 11.679936]]]}}, {"type": "Feature", "properties": {"type": "potential_vegetation_loss"}, "geometry": {"type": "Polygon", "coordinates": [[[75.897067, 11.681833], [75.897061, 11.679894], [75.893126, 11.679906], [75.89312, 11.677967], [75.895087, 11.677961], [75.895081, 11.676021], [75.899016, 11.676009], [75.899022, 11.677948], [75.90099, 11.677942], [75.900996, 11.679881], [75.902963, 11.679875], [75.90297, 11.681814], [75.897067, 11.681833]]]}}, {"type": "Feature", "properties": {"type": "potential_vegetation_loss"}, "geometry": {"type": "Polygon", "coordinates": [[[75.881315, 11.678003], [75.881303, 11.674125], [75.885238, 11.674113], [75.885244, 11.676052], [75.883276, 11.676058], [75.883282, 11.677997], [75.881315, 11.678003]]]}}]}