{"type": "FeatureCollection", "features": [{"type": "Feature", "properties": {"type": "potential_vegetation_loss", "method": "cloud_masked_ndvi_change", "threshold": -0.2}, "geometry": {"type": "Polygon", "coordinates": [[[76.004436, 12.51141], [76.004428, 12.509471], [76.006402, 12.509464], [76.006409, 12.511403], [76.004436, 12.51141]]]}}, {"type": "Feature", "properties": {"type": "potential_vegetation_loss", "method": "cloud_masked_ndvi_change", "threshold": -0.2}, "geometry": {"type": "Polygon", "coordinates": [[[75.390591, 12.48779], [75.390588, 12.485851], [75.392562, 12.485848], [75.392565, 12.487787], [75.390591, 12.48779]]]}}, {"type": "Feature", "properties": {"type": "potential_vegetation_loss", "method": "cloud_masked_ndvi_change", "threshold": -0.2}, "geometry": {"type": "Polygon", "coordinates": [[[75.382674, 12.472287], [75.382671, 12.470348], [75.384645, 12.470345], [75.384648, 12.472285], [75.382674, 12.472287]]]}}, {"type": "Feature", "properties": {"type": "potential_vegetation_loss", "method": "cloud_masked_ndvi_change", "threshold": -0.2}, "geometry": {"type": "Polygon", "coordinates": [[[75.370817, 12.460668], [75.370814, 12.458729], [75.380681, 12.458715], [75.380684, 12.460655], [75.370817, 12.460668]]]}}, {"type": "Feature", "properties": {"type": "potential_vegetation_loss", "method": "cloud_masked_ndvi_change", "threshold": -0.2}, "geometry": {"type": "Polygon", "coordinates": [[[75.998293, 12.453262], [75.998285, 12.451323], [76.000258, 12.451315], [76.000266, 12.453254], [75.998293, 12.453262]]]}}, {"type": "Feature", "properties": {"type": "potential_vegetation_loss", "method": "cloud_masked_ndvi_change", "threshold": -0.2}, "geometry": {"type": "Polygon", "coordinates": [[[75.941038, 12.443772], [75.941031, 12.441832], [75.943004, 12.441826], [75.943011, 12.443765], [75.941038, 12.443772]]]}}, {"type": "Feature", "properties": {"type": "potential_vegetation_loss", "method": "cloud_masked_ndvi_change", "threshold": -0.2}, "geometry": {"type": "Polygon", "coordinates": [[[75.555943, 12.285819], [75.555939, 12.283879], [75.557911, 12.283875], [75.557915, 12.285815], [75.555943, 12.285819]]]}}, {"type": "Feature", "properties": {"type": "potential_vegetation_loss", "method": "cloud_masked_ndvi_change", "threshold": -0.2}, "geometry": {"type": "Polygon", "coordinates": [[[75.551983, 12.27807], [75.551979, 12.27613], [75.55395, 12.276126], [75.553955, 12.278066], [75.551983, 12.27807]]]}}, {"type": "Feature", "properties": {"type": "potential_vegetation_loss", "method": "cloud_masked_ndvi_change", "threshold": -0.2}, "geometry": {"type": "Polygon", "coordinates": [[[75.630713, 12.215844], [75.630704, 12.211966], [75.628732, 12.21197], [75.628728, 12.210031], [75.632671, 12.210022], [75.632684, 12.215839], [75.630713, 12.215844]]]}}, {"type": "Feature", "properties": {"type": "potential_vegetation_loss", "method": "cloud_masked_ndvi_change", "threshold": -0.2}, "geometry": {"type": "Polygon", "coordinates": [[[75.636618, 12.211952], [75.636613, 12.210013], [75.638585, 12.210008], [75.63858, 12.208069], [75.640552, 12.208064], [75.640547, 12.206125], [75.64449, 12.206116], [75.644499, 12.209994], [75.640556, 12.210004], [75.640561, 12.211943], [75.636618, 12.211952]]]}}]}